#dP2020  9 26  0  0  0.00000000      96 __u+U ITR00 FIT  IAC
## 2124 518400.00000000   900.00000000 59118 0.0000000000000
+  118   C01C02C03C05C06C07C08C09C10C11C12C13C14C16C19C20C21
+        C22C23C24C25C26C27C28C29C30C32C33C34C35C36C37C38C39
+        C40C43C44C45E01E02E03E04E05E07E08E09E11E12E13E14E15
+        E18E19E21E24E25E26E27E30E31E33E36G01G02G03G04G05G06
+        G07G08G09G10G11G12G13G15G16G17G18G19G20G21G22G24G25
+        G26G27G28G29G30G31G32J01J02J03J07R01R02R03R04R05R07
+        R08R11R12R13R14R15R16R17R18R19R20R21R22R23R24R26  0
++        13 12 13 13  8  8  8  8  8  8  8  8  8  9  8  7  7
++         8  8  8  8  8  7  8  7  7  8  8  8  7  8  8 10 10
++        10 10  9  9  4  5  5  5  5  5  5  4  5  5  4  4  5
++         4  4  4  5  5  4  5  5  5  4  5  3  4  3  3  3  3
++         4  3  4  4  4  3  4  4  4  3  3  3  4  4  3  3  3
++         3  3  4  3  3  3  3  9  8  8 13  6  6  5  6  6  5
++         5  5  5  6  5  6  6  6  5  6  6  5  6  6  6  8  0
%c M  cc GPS ccc cccc cccc cccc cccc ccccc ccccc ccccc ccccc
%c cc cc ccc ccc cccc cccc cccc cccc ccccc ccccc ccccc ccccc
%f  0.0000000  0.000000000  0.00000000000  0.000000000000000
%f  0.0000000  0.000000000  0.00000000000  0.000000000000000
%i    0    0    0    0      0      0      0      0         0
%i    0    0    0    0      0      0      0      0         0
/* INFORMATION & ANALYSIS CENTER (IAC)            RAPID DATA
/* S/V CLOCKS ARE ALIGNED TO GNSS TIME                      
/* G:C1WC2W R:C1PC2P E:C1XC5X C:C2IC6I J:C1CC2S             
/* PCV:IGS14_2118 OL/AL:FES2004  NONE     YN ORB:CoN CLK:CoN
*  2020 09 26 13 45  0.00000000
PC01 -34371.559605  24466.002258    462.432556   -102.905897
PC02   4402.550568  41913.584575   -502.881171    810.307039
PC03 -14672.244965  39523.546298  -1199.566796    797.053783
PC05  21942.922920  35992.501161   -434.008176   -537.607232
PC06 -24394.318421  29158.889365  18151.024040     15.747190
PC07 -11957.515740  36265.674218  18676.159554    -46.311319
PC08 -10819.965326  18515.187343 -36220.436970   -556.398562
PC09 -10771.841577  28853.908834  28875.416501    834.859213
PC10  -1541.138453  41876.589472   6703.471955   -177.759359
PC11  14898.619835 -16420.073463  16966.587505   -645.762138
PC12  26341.960849  -9132.551359    597.576562    527.604859
PC13   4012.887451  25953.770963 -32831.806557    666.285940
PC14   9246.620412 -25590.386139   6081.028682    222.702205
PC16 -21552.758971  29624.372561  20771.664785   -591.119882
PC19  -3000.038291  27569.221295   3207.566872    560.174295
PC20 -13388.110435  20510.907797 -13390.863856   -848.682538
PC21  16221.084815   -818.241529  22700.018957   -684.741157
PC22   9339.616179  18844.952404  18350.965119   -767.895116
PC23 -19316.927915 -19930.951986  -2877.586197   -873.739543
PC24  13661.443609  -9304.942043 -22477.081434   -724.384570
PC25  -5057.626536 -20870.467151 -17829.652903   -770.198560
PC26  23131.667816   6257.176635 -14273.890504    844.610584
PC27 -26467.879387   2382.001963   8482.161250    405.514375
PC28 -14915.522312 -10509.309245  21120.578810   -165.561325
PC29  -4671.986379  17402.272419 -21316.854855    289.149903
PC30 -22192.836664  14497.773642  -8701.302555    381.216065
PC32 -16223.349939    946.253452 -22679.854885   -904.871154
PC33   2923.508710 -27569.597124  -3101.740843   -801.835867
PC34  21893.067305 -14679.114671   9180.928906   -845.860985
PC35  15084.646711  10180.437618 -21165.493619   -635.956222
PC36   4282.912881  20900.192226  18023.084065   -904.037278
PC37 -23148.932771  -7424.695721  13742.811866   -914.296096
PC38  -7988.567644  22617.015872 -34679.503447    102.684607
PC39 -18538.211418  31064.296330  21571.991761     22.956168
PC40  -5928.881782  40977.425915   8529.913900     84.962698
PC43   5158.947333 -17521.228894  21097.396178   -389.860626
PC44  26372.057662  -3053.330207  -8647.608172   -199.879265
PC45  19375.815126  19861.336965   2898.018861    240.612391
PE01  18709.185393   6517.020546 -21981.881355   -948.855621
PE02 -18704.273315  -6399.081416  22043.178173    164.462472
PE03 -21308.190072   4700.151821 -20012.927219   -347.113597
PE04  20189.540411 -21106.092165   4798.009637   -614.953291
PE05  -9932.511326 -14701.425201 -23694.935124   -342.878573
PE07  -7146.702426  25355.885569  13512.296832   -441.002826
PE08 -19943.311961  21402.385548  -4570.086926   6115.156939
PE09   6943.688583 -25310.102214 -13671.150052   5918.358284
PE11    216.681837 -16306.120925  24692.979532   5789.365351
PE12  21392.784533  -9537.516635  18099.862921   5586.376311
PE13   -477.569379  16204.395434 -24763.999737    403.919064
PE14  -7873.869445 -12621.563751  18073.660980  -1169.397533
PE15 -21213.364691   9653.427358 -18248.815497    850.986042
PE18   9562.276361  18444.299862 -25058.876888  -1277.649806
PE19  20490.361483  -2522.586443  21212.927610     88.117726
PE21  15928.801105  23577.219941  -8155.046213   -623.515753
PE24  -3286.104320 -27252.594685 -11099.946163   5223.757722
PE25 -15880.547696 -23653.394328   8044.230720   -517.222651
PE26  20892.229120  13248.732424 -16241.684408   2681.975142
PE27   3749.481447  27324.301512  10755.849825    125.979852
PE30 -11019.673899  14439.776129  23371.190448   3553.674615
PE31  10541.764557 -15007.266603 -23216.918366   -474.393254
PE33  29469.101398   2564.059478   1018.950898   -462.650981
PE36 -20532.700113 -13232.055401  16724.279761    502.387400
PG01  20355.326759  14684.516690  -9416.981076     35.317752
PG02   -732.562810 -16112.174050  21753.946438   -521.665881
PG03  12644.232543  18889.170662  13742.965822   -309.842667
PG04  13684.884386   8240.407077  21231.331110   -138.989530
PG05  -1632.708815 -25950.043300   4752.729876    -21.991164
PG06  14769.281054  -8896.002807  20265.302053   -328.849432
PG07  25475.884124   5263.590181  -6183.460123   -380.777409
PG08   4061.198201  15516.987788 -21110.767181    -49.339092
PG09  21169.924993  -3290.625804  15651.271449   -291.670113
PG10 -12555.708713  10983.391095 -20519.017042   -464.556712
PG11  12817.289090  13535.675071 -19276.293404   -153.601751
PG12 -10267.941149 -21093.680220  12362.580717     62.091647
PG13   5857.970000 -18427.396174 -18287.259721     48.941689
PG15  -7032.325508 -15151.282824 -20930.335088   -201.041614
PG16     42.957635  26156.241731   2646.724315   -214.290921
PG17  21480.287584 -15579.446677     96.322885    331.396860
PG18 -25038.317752  -4351.543382  -7819.343639    297.079553
PG19  18927.296200 -17388.605796   6262.001838    -99.748377
PG20 -16576.958423  -1707.456130 -20801.037803    526.610473
PG21   1951.376935  15819.822005 -20574.237224     51.340749
PG22  11003.999673  23415.789443   6545.716815   -750.260932
PG24 -18614.946959 -15067.605571 -12092.361190    -19.035713
PG25 -15140.327381 -10038.142087  19230.903742     54.726442
PG26  -6721.718405  20884.827088  14769.687140    285.318120
PG27  -7398.649322  19876.516244 -15916.991101   -404.638988
PG28  12402.753448 -12283.317391 -19485.976748    674.513501
PG29 -19663.182144   -612.177352  17828.851790   -202.949896
PG30  21778.415090  -2875.790716 -15026.629481   -308.954626
PG31 -13498.964831  10121.452659  20564.663155    -71.150401
PG32 -20403.772384  16869.596147      7.425690    350.918392
PJ01 -23315.263304  32144.000894  -9615.176062   -344.236211
PJ02 -25138.700618  22294.739856  30356.871859     -4.240218
PJ03 -35628.938621  20426.011773  -4991.567141     -1.430945
PJ07 -25405.358199  33659.136240     25.510315      0.086424
PR01 -11094.871613  -1880.342119 -22896.305340     68.143301
PR02 -13331.973361  18338.005033 -11595.375203    447.298539
PR03  -6605.482595  23940.006162   5742.360599     22.710019
PR04   3609.975785  15853.031143  19673.547756     55.886314
PR05  11854.860926  -1118.309039  22566.052876     58.250992
PR07   6378.980516 -23917.867750  -6221.317247    -40.383745
PR08  -3643.197658 -15927.126679 -19547.768794    -54.793854
PR11 -16039.846414 -19797.179194    333.825600    -39.020957
PR12 -17422.394817  -9773.237110  15907.810564    166.942103
PR13  -9004.061604   6305.839096  23009.556100    -44.385108
PR14   4824.486505  18863.198683  16508.795728     55.948066
PR15  15566.205470  20200.796581    630.421572    106.999736
PR16  17483.987296   8634.965962 -16386.789335     -6.697629
PR17  -6570.422655  11053.352804 -22032.673452    361.326304
PR18  11873.185027   7960.493492 -21125.291800     50.697474
PR19  23623.279112   1570.758665  -9477.349989   -112.840659
PR20  22285.060856  -7068.435722  10244.985209   -422.708220
PR21   5393.843237 -10940.668935  22394.127429   -154.874530
PR22 -12882.914545  -7595.669689  20621.772558    -74.732717
PR23 -25305.419216   2351.298672   2240.598263    334.505060
PR24 -21792.297279   7738.489046 -10777.373136     14.686514
PR26  24371.787227  -5530.625147   5021.738967   -360.588500
EOF
